start=new Date('2022-05-11T00:00:00.000Z').valueOf();
sats=[{"MEAN_ANOMALY":"300.7508","APOAPSIS":"548.280","ELEMENT_SET_NO":"999","DECAY_DATE":null,"NORAD_CAT_ID":"46743","PERIOD":"95.592","SEMIMAJOR_AXIS":"6925.339","TLE_LINE1":"1 46743U 20074E   22130.67028557  .00000162  00000-0  29792-4 0  9997","TLE_LINE2":"2 46743  53.0536 122.0466 0001554  59.3634 300.7508 15.06403220 85812","TIME_SYSTEM":"UTC","SITE":"AFETR","COUNTRY_CODE":"US","PERIAPSIS":"546.127","MEAN_MOTION_DDOT":"0.0000000000000","RCS_SIZE":"LARGE","ECCENTRICITY":"0.00015540","BSTAR":"0.00002979200000","INCLINATION":"53.0536","RA_OF_ASC_NODE":"122.0466","LAUNCH_DATE":"2020-10-24","OBJECT_NAME":"STARLINK-1892","EPHEMERIS_TYPE":"0","REV_AT_EPOCH":"8581","OBJECT_TYPE":"PAYLOAD","MEAN_ELEMENT_THEORY":"SGP4","OBJECT_ID":"2020-074E","CLASSIFICATION_TYPE":"U","MEAN_MOTION_DOT":"0.00000162","CENTER_NAME":"EARTH","ARG_OF_PERICENTER":"59.3634","REF_FRAME":"TEME","GP_ID":"203226965","FILE":"3439673","MEAN_MOTION":"15.06403220","EPOCH":"2022-05-10T16:05:12.673248"},{"FILE":"3439673","EPOCH":"2022-05-10T16:31:45.758784","MEAN_MOTION":"15.06399018","REF_FRAME":"TEME","GP_ID":"203227717","ARG_OF_PERICENTER":"44.2633","CENTER_NAME":"EARTH","MEAN_MOTION_DOT":"0.00000597","OBJECT_TYPE":"PAYLOAD","OBJECT_ID":"2020-074F","MEAN_ELEMENT_THEORY":"SGP4","CLASSIFICATION_TYPE":"U","EPHEMERIS_TYPE":"0","REV_AT_EPOCH":"8581","LAUNCH_DATE":"2020-10-24","OBJECT_NAME":"STARLINK-1894","RA_OF_ASC_NODE":"121.9783","INCLINATION":"53.0547","BSTAR":"0.00005897500000","ECCENTRICITY":"0.00024360","RCS_SIZE":"LARGE","MEAN_MOTION_DDOT":"0.0000000000000","PERIAPSIS":"545.530","SITE":"AFETR","COUNTRY_CODE":"US","TLE_LINE2":"2 46744  53.0547 121.9783 0002436  44.2633 315.8551 15.06399018 85811","TIME_SYSTEM":"UTC","NORAD_CAT_ID":"46744","PERIOD":"95.592","TLE_LINE1":"1 46744U 20074F   22130.68872406  .00000597  00000-0  58975-4 0  9996","SEMIMAJOR_AXIS":"6925.352","DECAY_DATE":null,"APOAPSIS":"548.904","ELEMENT_SET_NO":"999","MEAN_ANOMALY":"315.8551"},{"DECAY_DATE":null,"PERIOD":"93.376","NORAD_CAT_ID":"46745","SEMIMAJOR_AXIS":"6817.879","TLE_LINE1":"1 46745U 20074G   22130.87607399 -.00003519  00000-0 -71232-4 0  9995","MEAN_ANOMALY":"78.4711","APOAPSIS":"445.262","ELEMENT_SET_NO":"999","MEAN_MOTION_DDOT":"0.0000000000000","PERIAPSIS":"434.226","RCS_SIZE":"LARGE","TIME_SYSTEM":"UTC","TLE_LINE2":"2 46745  53.0560  76.3668 0008094 281.5384  78.4711 15.42157865 86472","SITE":"AFETR","COUNTRY_CODE":"US","INCLINATION":"53.0560","LAUNCH_DATE":"2020-10-24","OBJECT_NAME":"STARLINK-1898","RA_OF_ASC_NODE":"76.3668","EPHEMERIS_TYPE":"0","REV_AT_EPOCH":"8647","ECCENTRICITY":"0.00080940","BSTAR":"-0.00007123200000","ARG_OF_PERICENTER":"281.5384","REF_FRAME":"TEME","GP_ID":"203227467","FILE":"3439673","MEAN_MOTION":"15.42157865","EPOCH":"2022-05-10T21:01:32.792736","MEAN_ELEMENT_THEORY":"SGP4","OBJECT_TYPE":"PAYLOAD","OBJECT_ID":"2020-074G","CLASSIFICATION_TYPE":"U","MEAN_MOTION_DOT":"-0.00003519","CENTER_NAME":"EARTH"},{"CENTER_NAME":"EARTH","CLASSIFICATION_TYPE":"U","OBJECT_ID":"2020-074H","OBJECT_TYPE":"PAYLOAD","MEAN_ELEMENT_THEORY":"SGP4","MEAN_MOTION_DOT":"0.00000317","GP_ID":"203226216","REF_FRAME":"TEME","EPOCH":"2022-05-10T16:53:00.081024","MEAN_MOTION":"15.06399719","FILE":"3439673","ARG_OF_PERICENTER":"40.3582","BSTAR":"0.00004023100000","ECCENTRICITY":"0.00021990","RA_OF_ASC_NODE":"121.9162","LAUNCH_DATE":"2020-10-24","OBJECT_NAME":"STARLINK-1905","REV_AT_EPOCH":"8581","EPHEMERIS_TYPE":"0","INCLINATION":"53.0552","COUNTRY_CODE":"US","SITE":"AFETR","TIME_SYSTEM":"UTC","TLE_LINE2":"2 46746  53.0552 121.9162 0002199  40.3582 319.7570 15.06399719 85818","RCS_SIZE":"LARGE","MEAN_MOTION_DDOT":"0.0000000000000","PERIAPSIS":"545.692","APOAPSIS":"548.737","ELEMENT_SET_NO":"999","MEAN_ANOMALY":"319.7570","DECAY_DATE":null,"TLE_LINE1":"1 46746U 20074H   22130.70347316  .00000317  00000-0  40231-4 0  9994","SEMIMAJOR_AXIS":"6925.349","NORAD_CAT_ID":"46746","PERIOD":"95.592"},{"INCLINATION":"53.0553","OBJECT_NAME":"STARLINK-1908","LAUNCH_DATE":"2020-10-24","RA_OF_ASC_NODE":"122.8930","EPHEMERIS_TYPE":"0","REV_AT_EPOCH":"8578","ECCENTRICITY":"0.00024110","BSTAR":"0.00006667500000","ARG_OF_PERICENTER":"48.8802","REF_FRAME":"TEME","GP_ID":"203190785","FILE":"3439131","MEAN_MOTION":"15.06403503","EPOCH":"2022-05-10T11:39:50.405184","OBJECT_TYPE":"PAYLOAD","OBJECT_ID":"2020-074J","MEAN_ELEMENT_THEORY":"SGP4","CLASSIFICATION_TYPE":"U","MEAN_MOTION_DOT":"0.00000711","CENTER_NAME":"EARTH","DECAY_DATE":null,"PERIOD":"95.592","NORAD_CAT_ID":"46747","TLE_LINE1":"1 46747U 20074J   22130.48600006  .00000711  00000-0  66675-4 0  9996","SEMIMAJOR_AXIS":"6925.338","MEAN_ANOMALY":"311.2395","APOAPSIS":"548.873","ELEMENT_SET_NO":"999","MEAN_MOTION_DDOT":"0.0000000000000","PERIAPSIS":"545.533","RCS_SIZE":"LARGE","TIME_SYSTEM":"UTC","TLE_LINE2":"2 46747  53.0553 122.8930 0002411  48.8802 311.2395 15.06403503 85783","SITE":"AFETR","COUNTRY_CODE":"US"},{"MEAN_MOTION_DDOT":"0.0000000000000","PERIAPSIS":"545.996","RCS_SIZE":"LARGE","TLE_LINE2":"2 46748  53.0539 122.8637 0001785  55.9457 304.1702 15.06393848 85806","TIME_SYSTEM":"UTC","COUNTRY_CODE":"US","SITE":"AFETR","SEMIMAJOR_AXIS":"6925.367","TLE_LINE1":"1 46748U 20074K   22130.49336604 -.00000215  00000-0  44971-5 0  9994","PERIOD":"95.593","NORAD_CAT_ID":"46748","DECAY_DATE":null,"MEAN_ANOMALY":"304.1702","APOAPSIS":"548.469","ELEMENT_SET_NO":"999","ARG_OF_PERICENTER":"55.9457","EPOCH":"2022-05-10T11:50:26.825856","MEAN_MOTION":"15.06393848","FILE":"3438787","GP_ID":"203163035","REF_FRAME":"TEME","MEAN_MOTION_DOT":"-0.00000215","CLASSIFICATION_TYPE":"U","OBJECT_TYPE":"PAYLOAD","MEAN_ELEMENT_THEORY":"SGP4","OBJECT_ID":"2020-074K","CENTER_NAME":"EARTH","INCLINATION":"53.0539","REV_AT_EPOCH":"8580","EPHEMERIS_TYPE":"0","LAUNCH_DATE":"2020-10-24","RA_OF_ASC_NODE":"122.8637","OBJECT_NAME":"STARLINK-1910","ECCENTRICITY":"0.00017850","BSTAR":"0.00000449710000"},{"APOAPSIS":"548.689","ELEMENT_SET_NO":"999","MEAN_ANOMALY":"310.7397","SEMIMAJOR_AXIS":"6925.366","TLE_LINE1":"1 46749U 20074L   22130.69978118 -.00000056  00000-0  15167-4 0  9996","PERIOD":"95.593","NORAD_CAT_ID":"46749","DECAY_DATE":null,"COUNTRY_CODE":"US","SITE":"AFETR","TLE_LINE2":"2 46749  53.0550 121.9401 0002105  49.3774 310.7397 15.06394248 85814","TIME_SYSTEM":"UTC","RCS_SIZE":"LARGE","PERIAPSIS":"545.773","MEAN_MOTION_DDOT":"0.0000000000000","BSTAR":"0.00001516700000","ECCENTRICITY":"0.00021050","REV_AT_EPOCH":"8581","EPHEMERIS_TYPE":"0","RA_OF_ASC_NODE":"121.9401","LAUNCH_DATE":"2020-10-24","OBJECT_NAME":"STARLINK-1911","INCLINATION":"53.0550","CENTER_NAME":"EARTH","MEAN_MOTION_DOT":"-0.00000056","CLASSIFICATION_TYPE":"U","OBJECT_ID":"2020-074L","OBJECT_TYPE":"PAYLOAD","MEAN_ELEMENT_THEORY":"SGP4","EPOCH":"2022-05-10T16:47:41.093952","MEAN_MOTION":"15.06394248","FILE":"3439673","GP_ID":"203227967","REF_FRAME":"TEME","ARG_OF_PERICENTER":"49.3774"},{"MEAN_MOTION_DOT":"0.00001868","OBJECT_TYPE":"PAYLOAD","MEAN_ELEMENT_THEORY":"SGP4","OBJECT_ID":"2020-074N","CLASSIFICATION_TYPE":"U","CENTER_NAME":"EARTH","ARG_OF_PERICENTER":"57.6471","FILE":"3439131","EPOCH":"2022-05-10T07:09:08.282592","MEAN_MOTION":"15.06396438","REF_FRAME":"TEME","GP_ID":"203190034","ECCENTRICITY":"0.00018600","BSTAR":"0.00014428000000","INCLINATION":"53.0544","EPHEMERIS_TYPE":"0","REV_AT_EPOCH":"8575","LAUNCH_DATE":"2020-10-24","RA_OF_ASC_NODE":"123.7347","OBJECT_NAME":"STARLINK-1920","TLE_LINE2":"2 46751  53.0544 123.7347 0001860  57.6471 302.4698 15.06396438 85750","TIME_SYSTEM":"UTC","SITE":"AFETR","COUNTRY_CODE":"US","MEAN_MOTION_DDOT":"0.0000000000000","PERIAPSIS":"545.936","RCS_SIZE":"LARGE","MEAN_ANOMALY":"302.4698","APOAPSIS":"548.513","ELEMENT_SET_NO":"999","NORAD_CAT_ID":"46751","PERIOD":"95.592","SEMIMAJOR_AXIS":"6925.359","TLE_LINE1":"1 46751U 20074N   22130.29801253  .00001868  00000-0  14428-3 0  9999","DECAY_DATE":null},{"DECAY_DATE":null,"NORAD_CAT_ID":"46752","PERIOD":"95.592","TLE_LINE1":"1 46752U 20074P   22130.70714306  .00001377  00000-0  11135-3 0  9995","SEMIMAJOR_AXIS":"6925.329","APOAPSIS":"548.749","ELEMENT_SET_NO":"999","MEAN_ANOMALY":"316.8807","RCS_SIZE":"LARGE","PERIAPSIS":"545.639","MEAN_MOTION_DDOT":"0.0000000000000","SITE":"AFETR","COUNTRY_CODE":"US","TIME_SYSTEM":"UTC","TLE_LINE2":"2 46752  53.0536 121.8845 0002246  43.2358 316.8807 15.06406395 85810","LAUNCH_DATE":"2020-10-24","OBJECT_NAME":"STARLINK-1921","RA_OF_ASC_NODE":"121.8845","EPHEMERIS_TYPE":"0","REV_AT_EPOCH":"8581","INCLINATION":"53.0536","BSTAR":"0.00011135000000","ECCENTRICITY":"0.00022460","REF_FRAME":"TEME","GP_ID":"203226966","FILE":"3439673","MEAN_MOTION":"15.06406395","EPOCH":"2022-05-10T16:58:17.160384","ARG_OF_PERICENTER":"43.2358","CENTER_NAME":"EARTH","OBJECT_ID":"2020-074P","OBJECT_TYPE":"PAYLOAD","MEAN_ELEMENT_THEORY":"SGP4","CLASSIFICATION_TYPE":"U","MEAN_MOTION_DOT":"0.00001377"},{"MEAN_MOTION_DOT":"0.00000081","CLASSIFICATION_TYPE":"U","OBJECT_ID":"2020-074Q","OBJECT_TYPE":"PAYLOAD","MEAN_ELEMENT_THEORY":"SGP4","CENTER_NAME":"EARTH","ARG_OF_PERICENTER":"49.6751","EPOCH":"2022-05-10T16:10:31.403712","MEAN_MOTION":"15.06399857","FILE":"3439673","GP_ID":"203227718","REF_FRAME":"TEME","ECCENTRICITY":"0.00019210","BSTAR":"0.00002436900000","INCLINATION":"53.0546","REV_AT_EPOCH":"8581","EPHEMERIS_TYPE":"0","OBJECT_NAME":"STARLINK-1922","LAUNCH_DATE":"2020-10-24","RA_OF_ASC_NODE":"122.0375","TIME_SYSTEM":"UTC","TLE_LINE2":"2 46753  53.0546 122.0375 0001921  49.6751 310.4406 15.06399857 85818","COUNTRY_CODE":"US","SITE":"AFETR","MEAN_MOTION_DDOT":"0.0000000000000","PERIAPSIS":"545.884","RCS_SIZE":"LARGE","MEAN_ANOMALY":"310.4406","APOAPSIS":"548.544","ELEMENT_SET_NO":"999","TLE_LINE1":"1 46753U 20074Q   22130.67397458  .00000081  00000-0  24369-4 0  9992","SEMIMAJOR_AXIS":"6925.349","PERIOD":"95.592","NORAD_CAT_ID":"46753","DECAY_DATE":null}];
